SNIPE 4                 
1 56744U 23072B   23149.04168520 -.00000062  00000+0  00000+0 0  9992
2 56744  97.5493 336.3007 0007088 290.0804 185.5121 15.07136415   548
SNIPE 2                 
1 56745U 23072C   23149.04197419 -.00000062  00000+0  00000+0 0  9992
2 56745  97.5521 336.3002 0007252 291.6775 187.0963 15.07259713   541
2023-072D               
1 56746U 23072D   23149.04143734 -.00000062  00000+0  00000+0 0  9994
2 56746  97.5516 336.3012 0007813 295.5960 182.0799 15.07401258   544
2023-072E               
1 56747U 23072E   23149.04124256 -.00000062  00000+0  00000+0 0  9993
2 56747  97.5517 336.3019 0008184 296.9514 181.6565 15.07552035   541
2023-072F               
1 56748U 23072F   23149.10711382 -.00000062  00000+0  00000+0 0  9993
2 56748  97.5314 336.3579 0008651 299.5318 177.0986 15.07607761   552
2023-072G               
1 56749U 23072G   23149.04051868 -.00000062  00000+0  00000+0 0  9993
2 56749  97.5322 336.2950 0009142 301.9424 175.3156 15.07747737   543
2023-072H               
1 56750U 23072H   23147.11116813 -.00000069  00000+0  00000+0 0  9990
2 56750  97.5384 334.4116 0028850   7.7454 121.3170 15.14664864   250
2023-073A               
1 56752U 23073A   23148.82848130  .00006722  00000+0  43984-3 0  9999
2 56752  32.7365 189.9901 0013009 241.7143 118.2241 15.06629353   408
2023-073B               
1 56753U 23073B   23149.22635912  .00004852  00000+0  31843-3 0  9990
2 56753  32.7372 187.4918 0011457 255.5918 104.3438 15.06466932   446
2023-073C               
1 56754U 23073C   23148.82683258  .00005024  00000+0  31957-3 0  9990
2 56754  32.7359 189.9794 0016274 242.0079 117.8951 15.07560637   405
2023-073D               
1 56755U 23073D   23148.82622657  .00002971  00000+0  18896-3 0  9992
2 56755  35.4646 191.3627 0027512 207.8889 152.0284 15.08251780   409
COSMOS 2569             
1 56756U 23074A   23148.52960166  .00003891  00000+0  19162-3 0  9990
2 56756  97.4393 343.2984 0001880  96.8639 288.7057 15.18554362   251
2023-075A               
1 56757U 23075A   23147.32125815  .00000021  00000+0  00000+0 0  9992
2 56757  27.8254 147.7314 8176059 180.2610  49.6166  1.21044114    01
2023-075B               
1 56758U 23075B   23147.31788316  .00000021  00000+0  00000+0 0  9993
2 56758  27.7618 147.9385 8182107 180.1432  47.8375  1.20274540    06
